[{"OBJECT_NAME":"DUBAISAT-1","OBJECT_ID":"2009-041B","EPOCH":"2026-03-09T21:53:38.052672","MEAN_MOTION":14.74907438,"ECCENTRICITY":0.00110546,"INCLINATION":97.9873,"RA_OF_ASC_NODE":203.3619,"ARG_OF_PERICENTER":35.633,"MEAN_ANOMALY":324.5615,"EPHEMERIS_TYPE":0,"CLASSIFICATION_TYPE":"U","NORAD_CAT_ID":35682,"ELEMENT_SET_NO":999,"REV_AT_EPOCH":89046,"BSTAR":0.00024928583,"MEAN_MOTION_DOT":1.624e-5,"MEAN_MOTION_DDOT":0},{"OBJECT_NAME":"CZ-6A DEB","OBJECT_ID":"2022-151WE","EPOCH":"2026-03-09T02:33:05.538240","MEAN_MOTION":14.55661756,"ECCENTRICITY":0.00899926,"INCLINATION":98.6272,"RA_OF_ASC_NODE":118.6853,"ARG_OF_PERICENTER":261.6542,"MEAN_ANOMALY":97.4444,"EPHEMERIS_TYPE":0,"CLASSIFICATION_TYPE":"U","NORAD_CAT_ID":55213,"ELEMENT_SET_NO":999,"REV_AT_EPOCH":16956,"BSTAR":0.0018489114,"MEAN_MOTION_DOT":8.484e-5,"MEAN_MOTION_DDOT":0}]
